ONEWEB-0403             
1 50483U 21132Q   25247.13908309 -.00000183  00000+0 -49670-3 0  9994
2 50483  87.9171  32.2528 0001835  98.1507 261.9833 13.18685242183895
ONEWEB-0404             
1 50484U 21132R   25247.21862169  .00000552  00000+0  15222-2 0  9990
2 50484  87.8777  78.0534 0002055  92.8101 267.3262 13.11416732178213
ONEWEB-0405             
1 50485U 21132S   25247.15393585  .00000000  00000+0 -33027-4 0  9999
2 50485  87.9170  32.2354 0001882  86.5458 273.5889 13.18684630184296
ONEWEB-0406             
1 50486U 21132T   25247.14403517  .00002324  00000+0  58612-2 0  9991
2 50486  87.9173  32.2607 0002092 111.3685 248.7671 13.18676015183924
ONEWEB-0407             
1 50487U 21132U   25247.13745692  .00000071  00000+0  14818-3 0  9992
2 50487  87.9172  32.2469 0001836  92.7932 267.3410 13.18685743183861
ONEWEB-0409             
1 50488U 21132V   25247.06433386  .00000521  00000+0  14348-2 0  9996
2 50488  87.8776  78.0436 0001865  96.8558 263.2783 13.11416458178088
ONEWEB-0412             
1 50489U 21132W   25247.12590771  .00000083  00000+0  17781-3 0  9994
2 50489  87.9171  32.2622 0001853  85.1951 274.9393 13.18686347183954
ONEWEB-0413             
1 50490U 21132X   25247.13086243  .00000039  00000+0  66224-4 0  9999
2 50490  87.9172  32.2773 0001637  84.6280 275.5039 13.18686574183892
